{"dragon": {"capsule": null, "mass_returned_kg": null, "mass_returned_lbs": null, "flight_time_sec": null, "manifest": null, "water_landing": null, "land_landing": null}, "name": "Iridium NEXT 4", "type": "Satellite", "reused": false, "launch": "5eb87d0fffd86e000604b35d", "customers": ["Iridium Communications"], "norad_ids": [43070, 43071, 43072, 43073, 43074, 43075, 43076, 43077, 43078, 43079], "nationalities": ["United States"], "manufacturers": ["Thales Alenia Space"], "mass_kg": 9600, "mass_lbs": 21164.38, "orbit": "PO", "reference_system": "geocentric", "regime": "low-earth", "longitude": null, "semi_major_axis_km": 7155.796, "eccentricity": 0.0002375, "periapsis_km": 775.961, "apoapsis_km": 779.36, "inclination_deg": 86.3953, "period_min": 100.403, "lifespan_years": 15, "epoch": "2022-01-29T13:38:59.000Z", "mean_motion": 14.34220205, "raan": 270.4786, "arg_of_pericenter": 84.0641, "mean_anomaly": 276.0825, "id": "5eb0e4c6b6c3bb0006eeb219"}